{
  "type": "FeatureCollection",
  "features": [
    {
      "type": "Feature",
      "properties": {
        "norad_id": 40797,
        "name": "COSMOS 2251 DEB",
        "group": "cosmos-2251-debris",
        "lat": -70.63910592693064,
        "lon": -25.092654584099957,
        "alt_km": 558.7468196517748,
        "timestamp": "2025-12-10T14:53:37.485913+00:00",
        "meta_object_name": "COSMOS 2251 DEB",
        "meta_object_id": "1993-036BWA",
        "meta_epoch": "2025-11-19T18:43:16.602528",
        "meta_mean_motion": 15.10509474,
        "meta_eccentricity": 0.00703947,
        "meta_inclination": 73.92,
        "meta_ra_of_asc_node": 143.0892,
        "meta_arg_of_pericenter": 60.6639,
        "meta_mean_anomaly": 300.156,
        "meta_ephemeris_type": 0,
        "meta_classification_type": "U",
        "meta_norad_cat_id": 40797,
        "meta_element_set_no": 999,
        "meta_rev_at_epoch": 64297,
        "meta_bstar": 0.00072810385,
        "meta_mean_motion_dot": 0.00012707,
        "meta_mean_motion_ddot": 0,
        "tle_line1": "1 40797U 93036BWA 25323.78005327  .00012707  00000+0  72810-3 0  9992",
        "tle_line2": "2 40797  73.9200 143.0892 0070394  60.6639 300.1560 15.10509474642979"
      },
      "geometry": {
        "type": "Point",
        "coordinates": [
          -25.092654584099957,
          -70.63910592693064
        ]
      }
    },
    {
      "type": "Feature",
      "properties": {
        "norad_id": 40799,
        "name": "COSMOS 2251 DEB",
        "group": "cosmos-2251-debris",
        "lat": 22.522664244514814,
        "lon": 109.54662467059461,
        "alt_km": 511.5959753467969,
        "timestamp": "2025-12-10T14:53:37.485923+00:00",
        "meta_object_name": "COSMOS 2251 DEB",
        "meta_object_id": "1993-036BWC",
        "meta_epoch": "2025-12-09T01:53:34.430208",
        "meta_mean_motion": 14.96607637,
        "meta_eccentricity": 0.01188532,
        "meta_inclination": 73.9255,
        "meta_ra_of_asc_node": 105.8165,
        "meta_arg_of_pericenter": 348.6174,
        "meta_mean_anomaly": 11.2323,
        "meta_ephemeris_type": 0,
        "meta_classification_type": "U",
        "meta_norad_cat_id": 40799,
        "meta_element_set_no": 999,
        "meta_rev_at_epoch": 49922,
        "meta_bstar": 0.00041300806,
        "meta_mean_motion_dot": 5.391e-05,
        "meta_mean_motion_ddot": 0,
        "tle_line1": "1 40799U 93036BWC 25343.07887072  .00005391  00000+0  41301-3 0  9995",
        "tle_line2": "2 40799  73.9255 105.8165 0118853 348.6174  11.2323 14.96607637499224"
      },
      "geometry": {
        "type": "Point",
        "coordinates": [
          109.54662467059461,
          22.522664244514814
        ]
      }
    },
    {
      "type": "Feature",
      "properties": {
        "norad_id": 40802,
        "name": "COSMOS 2251 DEB",
        "group": "cosmos-2251-debris",
        "lat": -32.90934094848583,
        "lon": -12.156164433215634,
        "alt_km": 609.6888021852965,
        "timestamp": "2025-12-10T14:53:37.485931+00:00",
        "meta_object_name": "COSMOS 2251 DEB",
        "meta_object_id": "1993-036BWF",
        "meta_epoch": "2025-12-09T18:25:18.853248",
        "meta_mean_motion": 14.77560234,
        "meta_eccentricity": 0.00632236,
        "meta_inclination": 74.04,
        "meta_ra_of_asc_node": 158.8434,
        "meta_arg_of_pericenter": 258.1677,
        "meta_mean_anomaly": 101.2403,
        "meta_ephemeris_type": 0,
        "meta_classification_type": "U",
        "meta_norad_cat_id": 40802,
        "meta_element_set_no": 999,
        "meta_rev_at_epoch": 64365,
        "meta_bstar": 0.0011312786,
        "meta_mean_motion_dot": 8.327e-05,
        "meta_mean_motion_ddot": 0,
        "tle_line1": "1 40802U 93036BWF 25343.76757932  .00008327  00000+0  11313-2 0  9998",
        "tle_line2": "2 40802  74.0400 158.8434 0063223 258.1677 101.2403 14.77560234643650"
      },
      "geometry": {
        "type": "Point",
        "coordinates": [
          -12.156164433215634,
          -32.90934094848583
        ]
      }
    },
    {
      "type": "Feature",
      "properties": {
        "norad_id": 40803,
        "name": "COSMOS 2251 DEB",
        "group": "cosmos-2251-debris",
        "lat": -66.97166244819965,
        "lon": -81.68873429065684,
        "alt_km": 702.2170096494019,
        "timestamp": "2025-12-10T14:53:37.485940+00:00",
        "meta_object_name": "COSMOS 2251 DEB",
        "meta_object_id": "1993-036BWG",
        "meta_epoch": "2025-12-05T22:55:29.451072",
        "meta_mean_motion": 14.51792027,
        "meta_eccentricity": 0.00362816,
        "meta_inclination": 74.0122,
        "meta_ra_of_asc_node": 64.6912,
        "meta_arg_of_pericenter": 281.8159,
        "meta_mean_anomaly": 77.8934,
        "meta_ephemeris_type": 0,
        "meta_classification_type": "U",
        "meta_norad_cat_id": 40803,
        "meta_element_set_no": 999,
        "meta_rev_at_epoch": 58654,
        "meta_bstar": 0.00062935795,
        "meta_mean_motion_dot": 2.525e-05,
        "meta_mean_motion_ddot": 0,
        "tle_line1": "1 40803U 93036BWG 25339.95520198  .00002525  00000+0  62936-3 0  9999",
        "tle_line2": "2 40803  74.0122  64.6912 0036281 281.8159  77.8934 14.51792027586549"
      },
      "geometry": {
        "type": "Point",
        "coordinates": [
          -81.68873429065684,
          -66.97166244819965
        ]
      }
    },
    {
      "type": "Feature",
      "properties": {
        "norad_id": 40808,
        "name": "COSMOS 2251 DEB",
        "group": "cosmos-2251-debris",
        "lat": 46.419163359388634,
        "lon": 167.061760314862,
        "alt_km": 669.9156042663863,
        "timestamp": "2025-12-10T14:53:37.485949+00:00",
        "meta_object_name": "COSMOS 2251 DEB",
        "meta_object_id": "1993-036BWM",
        "meta_epoch": "2025-12-09T10:59:32.646336",
        "meta_mean_motion": 14.67380628,
        "meta_eccentricity": 0.00096177,
        "meta_inclination": 74.0414,
        "meta_ra_of_asc_node": 151.8055,
        "meta_arg_of_pericenter": 188.7618,
        "meta_mean_anomaly": 201.472,
        "meta_ephemeris_type": 0,
        "meta_classification_type": "U",
        "meta_norad_cat_id": 40808,
        "meta_element_set_no": 999,
        "meta_rev_at_epoch": 63571,
        "meta_bstar": 0.0023148185,
        "meta_mean_motion_dot": 0.00013088,
        "meta_mean_motion_ddot": 0,
        "tle_line1": "1 40808U 93036BWM 25343.45801674  .00013088  00000+0  23148-2 0  9992",
        "tle_line2": "2 40808  74.0414 151.8055 0009617 188.7618 201.4720 14.67380628635712"
      },
      "geometry": {
        "type": "Point",
        "coordinates": [
          167.061760314862,
          46.419163359388634
        ]
      }
    },
    {
      "type": "Feature",
      "properties": {
        "norad_id": 40810,
        "name": "COSMOS 2251 DEB",
        "group": "cosmos-2251-debris",
        "lat": 31.57726469085922,
        "lon": 88.90665581312585,
        "alt_km": 707.8640046785349,
        "timestamp": "2025-12-10T14:53:37.485969+00:00",
        "meta_object_name": "COSMOS 2251 DEB",
        "meta_object_id": "1993-036BWP",
        "meta_epoch": "2025-12-08T16:39:16.874784",
        "meta_mean_motion": 14.58674217,
        "meta_eccentricity": 0.00186464,
        "meta_inclination": 74.0365,
        "meta_ra_of_asc_node": 82.4401,
        "meta_arg_of_pericenter": 234.2275,
        "meta_mean_anomaly": 125.7157,
        "meta_ephemeris_type": 0,
        "meta_classification_type": "U",
        "meta_norad_cat_id": 40810,
        "meta_element_set_no": 999,
        "meta_rev_at_epoch": 61624,
        "meta_bstar": 0.0013703494,
        "meta_mean_motion_dot": 6.381e-05,
        "meta_mean_motion_ddot": 0,
        "tle_line1": "1 40810U 93036BWP 25342.69394531  .00006381  00000+0  13703-2 0  9993",
        "tle_line2": "2 40810  74.0365  82.4401 0018646 234.2275 125.7157 14.58674217616241"
      },
      "geometry": {
        "type": "Point",
        "coordinates": [
          88.90665581312585,
          31.57726469085922
        ]
      }
    },
    {
      "type": "Feature",
      "properties": {
        "norad_id": 46271,
        "name": "COSMOS 2251 DEB",
        "group": "cosmos-2251-debris",
        "lat": -30.381177964119075,
        "lon": 72.54794102746492,
        "alt_km": 742.8106196437129,
        "timestamp": "2025-12-10T14:53:37.485978+00:00",
        "meta_object_name": "COSMOS 2251 DEB",
        "meta_object_id": "1993-036BWT",
        "meta_epoch": "2025-12-08T00:10:45.560064",
        "meta_mean_motion": 14.51405587,
        "meta_eccentricity": 0.00404406,
        "meta_inclination": 74.0478,
        "meta_ra_of_asc_node": 87.1139,
        "meta_arg_of_pericenter": 209.4718,
        "meta_mean_anomaly": 150.4163,
        "meta_ephemeris_type": 0,
        "meta_classification_type": "U",
        "meta_norad_cat_id": 46271,
        "meta_element_set_no": 999,
        "meta_rev_at_epoch": 84573,
        "meta_bstar": 0.00060716032,
        "meta_mean_motion_dot": 2.42e-05,
        "meta_mean_motion_ddot": 0,
        "tle_line1": "1 46271U 93036BWT 25342.00747176  .00002420  00000+0  60716-3 0  9999",
        "tle_line2": "2 46271  74.0478  87.1139 0040440 209.4718 150.4163 14.51405587845731"
      },
      "geometry": {
        "type": "Point",
        "coordinates": [
          72.54794102746492,
          -30.381177964119075
        ]
      }
    }
  ]
}